STARLINK-4781           
1 53861U 22114AV  23283.52440850  .00005172  00000+0  34267-3 0  9998
2 53861  53.2168 279.9799 0001749  87.8992 272.2200 15.08856230 60083
STARLINK-4792           
1 53862U 22114AW  23283.70934431 -.00004830  00000+0 -28544-3 0  9995
2 53862  53.2181 279.0008 0001456  85.5667 274.5491 15.08860035 59579
STARLINK-4788           
1 53863U 22114AX  23283.71207984  .00001334  00000+0  10189-3 0  9993
2 53863  53.2151 279.0218 0001616 100.4498 259.6677 15.08832090 59577
STARLINK-4779           
1 53864U 22114AY  23283.46913316  .00005188  00000+0  34367-3 0  9994
2 53864  53.2158 279.6378 0001677 109.2501 250.8673 15.08857606 59543
STARLINK-4785           
1 53865U 22114AZ  23283.29252683  .00001686  00000+0  12397-3 0  9997
2 53865  53.2177 280.6684 0001547  94.4494 265.6674 15.08844308 60057
STARLINK-4762           
1 53866U 22114BA  23283.65874010 -.00001027  00000+0 -46453-4 0  9994
2 53866  53.2152 259.4285 0001466 101.5108 258.6049 15.08830934 59847
STARLINK-4793           
1 53867U 22114BB  23283.38179630  .00000016  00000+0  19114-4 0  9990
2 53867  53.2162 270.5247 0001673 101.2688 258.8492 15.08844337 60209
STARLINK-4789           
1 53868U 22114BC  23283.36429786 -.00000087  00000+0  12655-4 0  9991
2 53868  53.2175 260.4488 0001571  93.2359 266.8813 15.08842227 60348
STARLINK-4810           
1 53869U 22114BD  23283.67614944 -.00000688  00000+0 -25177-4 0  9999
2 53869  53.2157 268.8134 0000464 163.2631 196.8377 15.08839771 59716
STARLINK-4732           
1 53870U 22114BE  23283.63294827  .00006918  00000+0  45252-3 0  9996
2 53870  53.2160 259.2672 0001662  94.0900 266.0282 15.08823730 59841
STARLINK-4740           
1 53871U 22114BF  23283.20602532  .00002791  00000+0  19338-3 0  9997
2 53871  53.2162 260.8716 0001630  89.8959 270.2220 15.08844743 60323
STARLINK-5028           
1 53886U 22119A   23283.51337349  .00002759  00000+0  19130-3 0  9997
2 53886  53.2177 320.1056 0001747 102.9138 257.2049 15.08852079 58239
STARLINK-5029           
1 53887U 22119B   23283.50232345  .00003893  00000+0  26251-3 0  9999
2 53887  53.2165 320.0339 0001638  97.2632 262.8546 15.08847749 58652
STARLINK-5034           
1 53888U 22119C   23283.50969140  .00003979  00000+0  26790-3 0  9993
2 53888  53.2170 320.0818 0002018  89.6092 270.5131 15.08850930 58235
STARLINK-5031           
1 53889U 22119D   23283.37352710  .00026007  00000+0  16453-2 0  9999
2 53889  53.2169 320.6525 0001667  99.1953 260.9228 15.08858396 58634
STARLINK-5050           
1 53890U 22119E   23283.33438804  .00001202  00000+0  93605-4 0  9992
2 53890  53.2163 285.4611 0001625  85.5720 274.5458 15.08846205 59126
STARLINK-5041           
1 53891U 22119F   23283.49863604  .00005740  00000+0  37830-3 0  9998
2 53891  53.2168 320.0148 0001780  88.1325 271.9871 15.08855522 58654
STARLINK-5046           
1 53892U 22119G   23283.41397073  .00003156  00000+0  21621-3 0  9993
2 53892  53.2182 320.1977 0001257  88.5219 271.5917 15.08850013 58643
STARLINK-5052           
1 53893U 22119H   23283.49222655  .00005479  00000+0  36196-3 0  9998
2 53893  53.2173 319.9755 0001740  85.0256 275.0935 15.08852332 58650
STARLINK-5043           
1 53894U 22119J   23283.42871208  .00003539  00000+0  24028-3 0  9992
2 53894  53.2179 320.2886 0001597  97.0799 263.0375 15.08849936 58642
STARLINK-5032           
1 53895U 22119K   23283.61637347  .00000119  00000+0  25580-4 0  9994
2 53895  53.2166 319.3280 0001426  92.6734 267.4421 15.08850579 58259
STARLINK-5037           
1 53896U 22119L   23283.54276521  .00007020  00000+0  45847-3 0  9995
2 53896  53.2174 319.5802 0001658  92.2379 267.8803 15.08858861 58248
STARLINK-5035           
1 53897U 22119M   23283.62374765  .00030417  00000+0  19194-2 0  9995
2 53897  53.2163 319.3740 0001805  75.7778 284.3415 15.08870551 58253
STARLINK-5044           
1 53898U 22119N   23283.59794933  .00007860  00000+0  51110-3 0  9996
2 53898  53.2176 319.2151 0001823  88.5110 271.6091 15.08862297 58252
STARLINK-5042           
1 53899U 22119P   23283.40291840  .00002509  00000+0  17564-3 0  9996
2 53899  53.2165 320.1305 0001647  91.7761 268.3420 15.08848180 58642
STARLINK-5045           
1 53900U 22119Q   23283.78930563  .00002017  00000+0  14479-3 0  9998
2 53900  53.2165 318.2747 0001617  95.2883 264.8293 15.08845097 58287
STARLINK-5024           
1 53901U 22119R   23283.53908305  .00030107  00000+0  19003-2 0  9999
2 53901  53.2164 319.5604 0001611  92.7039 267.4138 15.08866106 58665
STARLINK-5021           
1 53902U 22119S   23283.65775947 -.00000911  00000+0 -39167-4 0  9994
2 53902  53.2157 268.9844 0000456 123.8656 236.2380 15.08836846 58962
STARLINK-5022           
1 53903U 22119T   23283.54003996  .00028975  00000+0  18300-2 0  9993
2 53903  53.2160 319.5636 0001612  95.1398 264.9778 15.08863141 58662
STARLINK-4787           
1 53904U 22119U   23283.52065973  .00008754  00000+0  56713-3 0  9999
2 53904  53.2176 319.4437 0001632  96.4222 263.6956 15.08858911 58663
STARLINK-5003           
1 53905U 22119V   23283.51061167  .00002676  00000+0  18608-3 0  9998
2 53905  53.2165 310.1073 0001468 102.6683 257.4474 15.08851912 58798
STARLINK-5054           
1 53906U 22119W   23283.45903034  .00004396  00000+0  29401-3 0  9994
2 53906  53.2162 309.8013 0001512  94.6969 265.4196 15.08851423 58799
STARLINK-5063           
1 53907U 22119X   23283.51697098 -.00000291  00000+0 -15464-6 0  9991
2 53907  53.2184 319.4185 0001595  92.0077 268.1098 15.08850948 58662
STARLINK-5057           
1 53908U 22119Y   23283.76820928  .00006618  00000+0  43353-3 0  9991
2 53908  53.2180 308.8749 0002032  79.5400 280.5821 15.08840761 58411
STARLINK-4796           
1 53909U 22119Z   23283.77926481  .00012156  00000+0  78051-3 0  9991
2 53909  53.2173 308.9394 0002512  87.7145 272.4134 15.08840807 58419
STARLINK-5056           
1 53910U 22119AA  23283.49587652  .00001989  00000+0  14297-3 0  9999
2 53910  53.2174 310.0152 0001765  95.0649 265.0544 15.08848525 58797
STARLINK-5048           
1 53911U 22119AB  23283.37444984  .00000285  00000+0  36020-4 0  9994
2 53911  53.2171 310.6811 0001572  90.3088 269.8084 15.08847747 58778
STARLINK-5059           
1 53912U 22119AC  23283.45534486  .00011293  00000+0  72618-3 0  9994
2 53912  53.2162 309.7767 0001857  96.1902 263.9302 15.08855743 58798
STARLINK-5053           
1 53913U 22119AD  23283.35602718  .00002650  00000+0  18447-3 0  9995
2 53913  53.2169 310.5642 0001599  97.0569 263.0605 15.08848376 58779
STARLINK-5040           
1 53914U 22119AE  23283.48481916  .00003919  00000+0  26407-3 0  9999
2 53914  53.2178 309.9470 0001642  95.4686 264.6494 15.08853002 58799
STARLINK-5017           
1 53915U 22119AF  23283.36708289  .00002929  00000+0  20198-3 0  9993
2 53915  53.2179 310.6361 0001735  89.8752 270.2439 15.08848057 58777
STARLINK-5051           
1 53916U 22119AG  23283.31734908  .00003696  00000+0  25014-3 0  9990
2 53916  53.2157 290.4094 0001566 100.9870 259.1298 15.08848180 59069
STARLINK-5036           
1 53917U 22119AH  23283.35971226  .00004696  00000+0  31282-3 0  9996
2 53917  53.2171 310.5887 0001716  92.7806 267.3382 15.08851711 58354
STARLINK-5012           
1 53918U 22119AJ  23283.34865903  .00002928  00000+0  20196-3 0  9998
2 53918  53.2170 310.5180 0001811  98.3154 261.8043 15.08846547 58774
STARLINK-5023           
1 53919U 22119AK  23283.41121578  .00002253  00000+0  15961-3 0  9995
2 53919  53.2166 310.1996 0001739  92.9006 267.2185 15.08845461 58788
STARLINK-5025           
1 53920U 22119AL  23283.48443119  .00001844  00000+0  13972-3 0  9997
2 53920  53.2178 309.9353 0001941 110.2696 249.8504 15.07213122 58794
STARLINK-5002           
1 53922U 22119AN  23283.40015927  .00002491  00000+0  17452-3 0  9999
2 53922  53.2164 310.1322 0001681  88.3508 271.7677 15.08845922 58367
STARLINK-5004           
1 53923U 22119AP  23283.34129452  .00000645  00000+0  58639-4 0  9994
2 53923  53.2171 310.4746 0001410  82.2883 277.8269 15.08836307 58774
STARLINK-5001           
1 53924U 22119AQ  23283.34727716  .00003352  00000+0  22853-3 0  9998
2 53924  53.2174 305.5230 0001754  98.3261 261.7930 15.08848994 58840
STARLINK-5011           
1 53925U 22119AR  23283.78286357  .00010703  00000+0  68937-3 0  9999
2 53925  53.2163 308.2663 0001856  80.3221 279.7980 15.08848610 58422
STARLINK-5014           
1 53926U 22119AS  23283.46870389  .00002703  00000+0  18784-3 0  9995
2 53926  53.2151 304.8559 0001597  84.9116 275.2058 15.08847841 58872
STARLINK-5008           
1 53927U 22119AT  23283.35464981  .00001539  00000+0  11473-3 0  9995
2 53927  53.2170 305.5850 0001627  90.7564 269.3614 15.08843221 58849
STARLINK-5009           
1 53928U 22119AU  23283.74334450  .00007433  00000+0  48467-3 0  9998
2 53928  53.2174 298.7401 0003205  90.9656 269.1704 15.08834359 58555
STARLINK-5018           
1 53929U 22119AV  23283.39647482  .00001978  00000+0  14230-3 0  9991
2 53929  53.2179 310.1088 0001733  80.5105 279.6083 15.08846990 58784
STARLINK-5010           
1 53930U 22119AW  23283.52987182  .00002402  00000+0  16894-3 0  9993
2 53930  53.2175 299.5413 0001767  99.6171 260.5021 15.08852134 58525
STARLINK-5015           
1 53931U 22119AX  23283.32240048 -.00008388  00000+0 -50964-3 0  9992
2 53931  53.2168 295.3967 0001460 105.7617 254.3536 15.08832396 58980
STARLINK-4772           
1 53932U 22119AY  23283.76038572  .00001203  00000+0  93664-4 0  9990
2 53932  53.2151 293.8582 0001642  90.1067 270.0113 15.08839382 58626
STARLINK-4782           
1 53933U 22119AZ  23283.73965399  .00008731  00000+0  56588-3 0  9990
2 53933  53.2172 298.7180 0001785  97.3526 262.7669 15.08848250 58555
STARLINK-4775           
1 53934U 22119BA  23283.35925798  .00003145  00000+0  21561-3 0  9995
2 53934  53.2167 295.6137 0001769  89.9077 270.2118 15.08844538 59007
